H1 CPF  1  DLR 2022 05 29 10  6492 technosat            
H2  1704205 6203    42829 2022 05 29 00 00 00 2022 06 05 00 00 00    60 1 1  0 0 0
H9
10 0 59731  72000.000000  0       4627698.071       -867745.275      -5163178.605
10 0 59731  72060.000000  0       4275984.887       -909463.314      -5451548.321
10 0 59731  72120.000000  0       3906092.312       -944228.616      -5717001.509
10 0 59731  72180.000000  0       3519634.242       -971746.035      -5958434.092
10 0 59731  72240.000000  0       3118293.802       -991765.057      -6174842.811
10 0 59731  72300.000000  0       2703816.004      -1004081.303      -6365329.018
10 0 59731  72360.000000  0       2278000.194      -1008537.782      -6529102.032
10 0 59731  72420.000000  0       1842692.343      -1005025.931      -6665482.069
10 0 59731  72480.000000  0       1399777.211       -993486.429      -6773902.761
10 0 59731  72540.000000  0        951170.387       -973909.745      -6853913.284
10 0 59731  72600.000000  0        498810.193       -946336.366      -6905180.063
10 0 59731  72660.000000  0         44649.546       -910856.779      -6927487.956
10 0 59731  72720.000000  0       -409352.127       -867611.224      -6920741.066
10 0 59731  72780.000000  0       -861237.059       -816789.187      -6884963.234
10 0 59731  72840.000000  0      -1309057.371       -758628.613      -6820298.006
10 0 59731  72900.000000  0      -1750883.213       -693414.833      -6727008.152
10 0 59731  72960.000000  0      -2184810.849       -621479.273      -6605474.749
10 0 59731  73020.000000  0      -2608970.601       -543197.920      -6456195.801
10 0 59731  73080.000000  0      -3021534.652       -458989.525      -6279784.549
10 0 59731  73140.000000  0      -3420724.808       -369313.566      -6076967.403
10 0 59731  73200.000000  0      -3804820.206       -274667.975      -5848581.393
10 0 59731  73260.000000  0      -4172164.794       -175586.616      -5595571.053
10 0 59731  73320.000000  0      -4521174.510        -72636.561      -5318984.916
10 0 59731  73380.000000  0      -4850344.234         33584.830      -5019971.620
10 0 59731  73440.000000  0      -5158254.522        142453.012      -4699775.613
10 0 59731  73500.000000  0      -5443578.066        253319.609      -4359732.412
10 0 59731  73560.000000  0      -5705085.824        365515.960      -4001263.345
10 0 59731  73620.000000  0      -5941652.658        478356.763      -3625869.898
10 0 59731  73680.000000  0      -6152262.642        591143.872      -3235127.734
10 0 59731  73740.000000  0      -6336013.916        703170.267      -2830680.237
10 0 59731  73800.000000  0      -6492122.973        813724.086      -2414231.699
10 0 59731  73860.000000  0      -6619928.443        922092.707      -1987540.234
10 0 59731  73920.000000  0      -6718894.437       1027566.931      -1552410.411
10 0 59731  73980.000000  0      -6788613.315       1129445.186      -1110685.475
10 0 59731  74040.000000  0      -6828807.739       1227037.712       -664239.281
10 0 59731  74100.000000  0      -6839331.987       1319670.683       -214968.121
10 0 59731  74160.000000  0      -6820172.711       1406690.305        235217.497
10 0 59731  74220.000000  0      -6771449.119       1487466.862        684401.201
10 0 59731  74280.000000  0      -6693412.499       1561398.654       1130669.228
10 0 59731  74340.000000  0      -6586445.065       1627915.803       1572118.903
10 0 59731  74400.000000  0      -6451058.150       1686483.899       2006867.103
10 0 59731  74460.000000  0      -6287889.751       1736607.464       2433058.636
10 0 59731  74520.000000  0      -6097701.431       1777833.204       2848874.495
10 0 59731  74580.000000  0      -5881374.596       1809753.018       3252539.943
10 0 59731  74640.000000  0      -5639906.162       1832006.770       3642332.344
10 0 59731  74700.000000  0      -5374403.698       1844284.803       4016588.703
10 0 59731  74760.000000  0      -5086080.071       1846330.178       4373712.925
10 0 59731  74820.000000  0      -4776247.589       1837940.631       4712182.723
10 0 59731  74880.000000  0      -4446311.737       1818970.229       5030556.164
10 0 59731  74940.000000  0      -4097764.524       1789330.728       5327477.841
10 0 59731  75000.000000  0      -3732177.444       1748992.619       5601684.662
10 0 59731  75060.000000  0      -3351194.135       1697985.847       5852011.226
10 0 59731  75120.000000  0      -2956522.653       1636400.261       6077394.780
10 0 59731  75180.000000  0      -2549927.468       1564385.687       6276879.602
10 0 59731  75240.000000  0      -2133221.329       1482151.666       6449620.899
10 0 59731  75300.000000  0      -1708256.924       1389966.877       6594888.227
10 0 59731  75360.000000  0      -1276918.467       1288158.261       6712068.365
10 0 59731  75420.000000  0       -841113.232       1177109.847       6800667.705
10 0 59731  75480.000000  0       -402763.044       1057261.272       6860314.206
10 0 59731  75540.000000  0         36204.284        929105.971       6890758.837
10 0 59731  75600.000000  0        473863.480        793189.101       6891876.515
10 0 59731  75660.000000  0        908300.317        650105.200       6863666.546
10 0 59731  75720.000000  0       1337620.025        500495.555       6806252.554
10 0 59731  75780.000000  0       1759955.597        345045.306       6719881.927
10 0 59731  75840.000000  0       2173475.936        184480.306       6604924.771
10 0 59731  75900.000000  0       2576393.871         19563.712       6461872.421
10 0 59731  75960.000000  0       2966974.013       -148907.644       6291335.387
10 0 59731  76020.000000  0       3343540.333       -320107.076       6094040.764
10 0 59731  76080.000000  0       3704483.466       -493182.072       5870829.211
10 0 59731  76140.000000  0       4048267.733       -667258.510       5622651.436
10 0 59731  76200.000000  0       4373437.803       -841445.050       5350564.227
10 0 59731  76260.000000  0       4678625.035      -1014837.644       5055726.063
10 0 59731  76320.000000  0       4962553.463      -1186524.170       4739392.207
10 0 59731  76380.000000  0       5224045.303      -1355589.114       4402909.390
10 0 59731  76440.000000  0       5462026.068      -1521118.389       4047710.105
10 0 59731  76500.000000  0       5675529.196      -1682204.185       3675306.456
10 0 59731  76560.000000  0       5863700.174      -1837949.829       3287283.664
10 0 59731  76620.000000  0       6025800.109      -1987474.646       2885293.214
10 0 59731  76680.000000  0       6161208.755      -2129918.762       2471045.702
10 0 59731  76740.000000  0       6269426.967      -2264447.845       2046303.415
10 0 59731  76800.000000  0       6350078.591      -2390257.727       1612872.688
10 0 59731  76860.000000  0       6402911.832      -2506578.934       1172596.018
10 0 59731  76920.000000  0       6427799.902      -2612681.071        727343.943
10 0 59731  76980.000000  0       6424741.063      -2707877.000        279006.902
10 0 59731  77040.000000  0       6393858.153      -2791526.814       -170512.994
10 0 59731  77100.000000  0       6335397.479      -2863041.574       -619310.297
10 0 59731  77160.000000  0       6249727.058      -2921886.826      -1065484.547
10 0 59731  77220.000000  0       6137334.244      -2967585.807      -1507148.494
10 0 59731  77280.000000  0       5998822.837      -2999722.369      -1942436.180
10 0 59731  77340.000000  0       5834909.699      -3017943.587      -2369510.903
10 0 59731  77400.000000  0       5646420.851      -3021962.053      -2786573.023
10 0 59731  77460.000000  0       5434287.064      -3011557.835      -3191867.549
10 0 59731  77520.000000  0       5199539.002      -2986580.122      -3583691.429
10 0 59731  77580.000000  0       4943301.999      -2946948.545      -3960400.586
10 0 59731  77640.000000  0       4666790.429      -2892654.136      -4320416.708
10 0 59731  77700.000000  0       4371301.664      -2823759.925      -4662233.669
10 0 59731  77760.000000  0       4058209.731      -2740401.176      -4984423.541
10 0 59731  77820.000000  0       3728958.714      -2642785.268      -5285642.226
10 0 59731  77880.000000  0       3385055.964      -2531191.250      -5564634.653
10 0 59731  77940.000000  0       3028065.161      -2405969.079      -5820239.607
10 0 59731  78000.000000  0       2659599.237      -2267538.565      -6051394.212
10 0 59731  78060.000000  0       2281313.125      -2116387.974      -6257138.054
10 0 59731  78120.000000  0       1894896.338      -1953072.267      -6436616.868
10 0 59731  78180.000000  0       1502065.466      -1778211.009      -6589085.736
10 0 59731  78240.000000  0       1104556.677      -1592486.004      -6713911.779
10 0 59731  78300.000000  0        704118.264      -1396638.711      -6810576.488
10 0 59731  78360.000000  0        302503.144      -1191467.343      -6878677.681
10 0 59731  78420.000000  0        -98538.596       -977823.672      -6917930.931
10 0 59731  78480.000000  0       -497267.009       -756609.646      -6928170.636
10 0 59731  78540.000000  0       -891959.607       -528773.727      -6909350.738
10 0 59731  78600.000000  0      -1280918.609       -295306.951      -6861544.932
10 0 59731  78660.000000  0      -1662478.015        -57238.765      -6784946.418
10 0 59731  78720.000000  0      -2035010.527        184367.328      -6679867.249
10 0 59731  78780.000000  0      -2396934.280        428418.321      -6546737.268
10 0 59731  78840.000000  0      -2746719.395        673796.465      -6386102.642
10 0 59731  78900.000000  0      -3082894.341        919364.208      -6198623.975
10 0 59731  78960.000000  0      -3404052.090       1163969.296      -5985074.006
10 0 59731  79020.000000  0      -3708856.100       1406450.011      -5746334.858
10 0 59731  79080.000000  0      -3996045.977       1645640.533      -5483394.810
10 0 59731  79140.000000  0      -4264442.840       1880376.467      -5197344.670
99
